IRIDIUM 166             
1 43570U 18061B   25096.89294433 -.00000018  00000+0 -13651-4 0  9999
2 43570  86.3962 239.0047 0001797 102.2529 257.8868 14.34217794350863
IRIDIUM 158             
1 43571U 18061C   25096.86123219  .00000029  00000+0  34029-5 0  9993
2 43571  86.3962 239.0275 0001970  92.0774 268.0647 14.34217545350827
IRIDIUM 165             
1 43572U 18061D   25096.88660268  .00000053  00000+0  11702-4 0  9995
2 43572  86.3964 239.0547 0002144 102.1340 258.0097 14.34217664350851
IRIDIUM 155             
1 43573U 18061E   25096.91831374  .00000132  00000+0  40093-4 0  9991
2 43573  86.3962 238.9323 0001872  91.7037 268.4373 14.34218607350831
IRIDIUM 154             
1 43574U 18061F   25096.89928365  .00000604  00000+0  20863-3 0  9992
2 43574  86.3959 239.0519 0002037  93.2085 266.9343 14.34217026350879
IRIDIUM 163             
1 43575U 18061G   25096.88026015 -.00000157  00000+0 -63132-4 0  9995
2 43575  86.3961 238.9897 0002056  91.1434 268.9997 14.34216960350846
IRIDIUM 156             
1 43576U 18061H   25097.13396268 -.00000019  00000+0 -14009-4 0  9991
2 43576  86.3963 238.8905 0001636  96.2682 263.8700 14.34217631350866
IRIDIUM 164             
1 43577U 18061J   25096.90563073 -.00000160  00000+0 -64249-4 0  9994
2 43577  86.3963 239.0192 0002103 102.6145 257.5286 14.34217034350882
